NORAD_CAT_ID,OBJECT_NAME,OBJECT_TYPE,EPOCH,MEAN_MOTION,ECCENTRICITY,INCLINATION,RA_OF_ASC_NODE,ARG_OF_PERICENTER,MEAN_ANOMALY,BSTAR,MEAN_MOTION_DOT,MEAN_MOTION_DDOT,TLE_LINE0,TLE_LINE1,TLE_LINE2,SEMIMAJOR_AXIS,PERIOD,APOGEE,PERIGEE,DECAYED
53779.0,STARLINK-4706,PAYLOAD,2022-09-19 18:00:00,15.73178527,0.0001032,53.2149,224.0876,110.6439,310.3112,-0.0001295,-0.00018736,0.0,0 STARLINK-4706,1 53779U 22111G   22262.75001157 -.00018736  00000-0 -12950-3 0  9995,2 53779  53.2149 224.0876 0001032 110.6439 310.3112 15.73178527  1307,6727.956,91.534,350.516,349.12699999999984,0.0
53779.0,STARLINK-4706,PAYLOAD,2022-09-19 22:00:00,15.73153634,0.0001082999999999,53.2151,223.263,112.6933,172.7136,0.00030861,0.00042826,0.0,0 STARLINK-4706,1 53779U 22111G   22262.91667824  .00042826  00000-0  30861-3 0  9998,2 53779  53.2151 223.2630 0001083 112.6933 172.7136 15.73153634  1304,6728.026999999999,91.536,350.621,349.164,0.0
53779.0,STARLINK-4706,PAYLOAD,2022-09-20 06:00:00,15.73186498,9.990000000000004e-05,53.2152,221.6157,98.0712,276.2233,0.00015512,0.00021192,0.0,0 STARLINK-4706,1 53779U 22111G   22263.25001157  .00021192  00000-0  15512-3 0  9996,2 53779  53.2152 221.6157 0000999  98.0712 276.2233 15.73186498  1377,6727.934,91.534,350.471,349.12699999999984,0.0
53779.0,STARLINK-4706,PAYLOAD,2022-09-20 14:00:01,15.73183754,0.000107,53.2153,219.9647,105.479,357.7456,3.7601e-05,4.657e-05,0.0,0 STARLINK-4706,1 53779U 22111G   22263.58334491  .00004657  00000-0  37601-4 0  9993,2 53779  53.2153 219.9647 0001070 105.4790 357.7456 15.73183754  1309,6727.941,91.534,350.526,349.087,0.0
53779.0,STARLINK-4706,PAYLOAD,2022-09-20 22:00:01,15.73214707,0.0001242999999999,53.2157,218.3145,111.5728,80.6068,8.1484e-05,0.00010838,0.0,0 STARLINK-4706,1 53779U 22111G   22263.91668981  .00010838  00000-0  81484-4 0  9990,2 53779  53.2157 218.3145 0001243 111.5728  80.6068 15.73214707  1483,6727.853,91.532,350.555,348.88199999999995,0.0
53779.0,STARLINK-4706,PAYLOAD,2022-09-21 14:00:01,15.73174505,0.0001174,53.2153,215.0159,108.1289,261.863,-3.5081e-05,-5.534e-05,0.0,0 STARLINK-4706,1 53779U 22111G   22264.58334491 -.00005534  00000-0 -35081-4 0  9991,2 53779  53.2153 215.0159 0001174 108.1289 261.8630 15.73174505  1585,6727.968000000003,91.535,350.62300000000016,349.043,0.0
53779.0,STARLINK-4706,PAYLOAD,2022-09-21 22:00:00,15.73193539,0.0001289,53.2155,213.3662,113.5311,345.3531,0.00037888,0.00052874,0.0,0 STARLINK-4706,1 53779U 22111G   22264.91667824  .00052874  00000-0  37888-3 0  9990,2 53779  53.2155 213.3662 0001289 113.5311 345.3531 15.73193539  1306,6727.9140000000025,91.534,350.646,348.911,0.0
53779.0,STARLINK-4706,PAYLOAD,2022-09-22 06:00:00,15.73214577,0.0001046,53.2156,211.7187,103.6265,84.199,-0.00010788,-0.0001574,0.0,0 STARLINK-4706,1 53779U 22111G   22265.25001157 -.00015740  00000-0 -10788-3 0  9992,2 53779  53.2156 211.7187 0001046 103.6265  84.1990 15.73214577  1695,6727.854,91.532,350.422,349.015,0.0
53779.0,STARLINK-4706,PAYLOAD,2022-09-22 14:00:01,15.73213158,0.0001004999999999,53.2159,210.0674,114.9193,161.8363,-0.00010142,-0.00014836,0.0,0 STARLINK-4706,1 53779U 22111G   22265.58334491 -.00014836  00000-0 -10142-3 0  9997,2 53779  53.2159 210.0674 0001005 114.9193 161.8363 15.73213158  1300,6727.858,91.532,350.399,349.047,0.0
53779.0,STARLINK-4706,PAYLOAD,2022-09-22 22:00:00,15.73199675,0.0001252999999999,53.2162,208.4176,113.8809,251.8161,-1.0501e-05,-2.093e-05,0.0,0 STARLINK-4706,1 53779U 22111G   22265.91667824 -.00002093  00000-0 -10501-4 0  9995,2 53779  53.2162 208.4176 0001253 113.8809 251.8161 15.73199675  1302,6727.896,91.533,350.60400000000016,348.918,0.0
53779.0,STARLINK-4706,PAYLOAD,2022-09-23 06:00:00,15.73196973,0.0001293,53.2162,206.77,100.575,354.0489,0.00020206,0.00027828,0.0,0 STARLINK-4706,1 53779U 22111G   22266.25001157  .00027828  00000-0  20206-3 0  9997,2 53779  53.2162 206.7700 0001293 100.5750 354.0489 15.73196973  1855,6727.904,91.533,350.639,348.899,0.0
53779.0,STARLINK-4706,PAYLOAD,2022-09-23 14:00:01,15.7318535,0.0001378,53.2162,205.1186,109.0611,74.5178,0.00020849,0.00028722,0.0,0 STARLINK-4706,1 53779U 22111G   22266.58334491  .00028722  00000-0  20849-3 0  9990,2 53779  53.2162 205.1186 0001378 109.0611  74.5178 15.73185350  1306,6727.937,91.534,350.72900000000016,348.875,0.0
53779.0,STARLINK-4706,PAYLOAD,2022-09-23 20:00:01,15.73205865,0.000154,53.2162,203.8812,115.6407,44.6882,0.00043486,0.00060869,0.0,0 STARLINK-4706,1 53779U 22111G   22266.83335648  .00060869  00000-0  43486-3 0  9993,2 53779  53.2162 203.8812 0001540 115.6407  44.6882 15.73205865  1308,6727.878000000002,91.533,350.78,348.707,0.0
53779.0,STARLINK-4706,PAYLOAD,2022-09-24 06:00:00,15.73210643,0.0001274,53.2162,201.8215,106.9757,254.5211,0.00033151,0.00046182,0.0,0 STARLINK-4706,1 53779U 22111G   22267.25001157  .00046182  00000-0  33151-3 0  9995,2 53779  53.2162 201.8215 0001274 106.9757 254.5211 15.73210643  2004,6727.865,91.533,350.587,348.87300000000016,0.0
53779.0,STARLINK-4706,PAYLOAD,2022-09-24 14:00:01,15.73190818,0.0001317,53.2166,200.17,117.4983,333.0313,0.00032246,0.00044859,0.0,0 STARLINK-4706,1 53779U 22111G   22267.58335648  .00044859  00000-0  32246-3 0  9999,2 53779  53.2166 200.1700 0001317 117.4983 333.0313 15.73190818  1304,6727.920999999999,91.534,350.672,348.9,0.0
53779.0,STARLINK-4706,PAYLOAD,2022-09-24 22:00:00,15.73263372,0.0001355,53.2169,198.5207,119.341,60.0507,-0.00059679,-0.00083773,0.0,0 STARLINK-4706,1 53779U 22111G   22267.91667824 -.00083773  00000-0 -59679-3 0  9999,2 53779  53.2169 198.5207 0001355 119.3410  60.0507 15.73263372  1305,6727.715,91.529,350.491,348.668,0.0
53779.0,STARLINK-4706,PAYLOAD,2022-09-25 06:00:00,15.73181294,0.0001044999999999,53.2171,196.8758,108.0843,160.2801,-3.0231e-05,-4.856e-05,0.0,0 STARLINK-4706,1 53779U 22111G   22268.25001157 -.00004856  00000-0 -30231-4 0  9997,2 53779  53.2171 196.8758 0001045 108.0843 160.2801 15.73181294  2168,6727.949000000001,91.534,350.517,349.11,0.0
53779.0,STARLINK-4706,PAYLOAD,2022-09-25 14:00:01,15.73047452,0.0001413,53.2174,195.2266,111.3236,245.9774,0.00093033,0.00131142,0.0,0 STARLINK-4706,1 53779U 22111G   22268.58334491  .00131142  00000-0  93033-3 0  9998,2 53779  53.2174 195.2266 0001413 111.3236 245.9774 15.73047452  2213,6728.33,91.542,351.146,349.244,0.0
53779.0,STARLINK-4706,PAYLOAD,2022-09-25 22:00:01,15.73218251,0.0001315,53.217,193.5734,119.9473,326.279,-0.00049016,-0.00068903,0.0,0 STARLINK-4706,1 53779U 22111G   22268.91668981 -.00068903  00000-0 -49016-3 0  9997,2 53779  53.2170 193.5734 0001315 119.9473 326.2790 15.73218251  2272,6727.843000000003,91.532,350.593,348.8230000000001,0.0
53779.0,STARLINK-4706,PAYLOAD,2022-09-26 10:00:00,15.73260449,0.0001224,53.2165,191.0991,116.6115,282.9451,-0.00057091,-0.00080189,0.0,0 STARLINK-4706,1 53779U 22111G   22269.41667824 -.00080189  00000-0 -57091-3 0  9990,2 53779  53.2165 191.0991 0001224 116.6115 282.9451 15.73260449  2346,6727.723000000001,91.53,350.411,348.764,0.0
53779.0,STARLINK-4706,PAYLOAD,2022-09-26 14:00:01,15.73183533,0.0001374,53.2169,190.2733,119.8547,144.2063,0.00046026,0.00064426,0.0,0 STARLINK-4706,1 53779U 22111G   22269.58334491  .00064426  00000-0  46026-3 0  9999,2 53779  53.2169 190.2733 0001374 119.8547 144.2063 15.73183533  1307,6727.941999999999,91.534,350.732,348.8830000000001,0.0
53779.0,STARLINK-4706,PAYLOAD,2022-09-26 22:00:00,15.73236841,0.0001565999999999,53.217,188.6243,116.8013,236.1892,-0.00043527,-0.00061361,0.0,0 STARLINK-4706,1 53779U 22111G   22269.91667824 -.00061361  00000-0 -43527-3 0  9995,2 53779  53.2170 188.6243 0001566 116.8013 236.1892 15.73236841  1306,6727.79,91.531,350.709,348.602,0.0
53779.0,STARLINK-4706,PAYLOAD,2022-09-27 06:00:00,15.7321486,0.0001398,53.2167,186.9763,110.1882,331.7479,5.6214e-08,-6.12e-06,0.0,0 STARLINK-4706,1 53779U 22111G   22270.25001157 -.00000612  00000-0  56214-7 0  9997,2 53779  53.2167 186.9763 0001398 110.1882 331.7479 15.73214860  2484,6727.853,91.532,350.658,348.777,0.0
53779.0,STARLINK-4706,PAYLOAD,2022-09-27 14:00:01,15.73171438,0.0001286999999999,53.2166,185.3248,127.2019,43.6962,0.00077182,0.00108981,0.0,0 STARLINK-4706,1 53779U 22111G   22270.58334491  .00108981  00000-0  77182-3 0  9993,2 53779  53.2166 185.3248 0001287 127.2019  43.6962 15.73171438  1301,6727.977,91.535,350.707,348.976,0.0
53779.0,STARLINK-4706,PAYLOAD,2022-09-27 22:00:01,15.73292736,0.000122,53.2165,183.6763,129.3912,130.5048,-0.00058034,-0.00081602,0.0,0 STARLINK-4706,1 53779U 22111G   22270.91668981 -.00081602  00000-0 -58034-3 0  9991,2 53779  53.2165 183.6763 0001220 129.3912 130.5048 15.73292736  2582,6727.630999999999,91.528,350.31699999999995,348.675,0.0
53779.0,STARLINK-4706,PAYLOAD,2022-09-28 06:00:00,15.73229994,9.6e-05,53.216,182.028,123.8378,224.9962,0.00045975,0.00064482,0.0,0 STARLINK-4706,1 53779U 22111G   22271.25001157  .00064482  00000-0  45975-3 0  9990,2 53779  53.2160 182.0280 0000960 123.8378 224.9962 15.73229994  2634,6727.81,91.531,350.321,349.029,0.0
53779.0,STARLINK-4706,PAYLOAD,2022-09-28 14:00:01,15.73262031,0.000131,53.2163,180.3763,131.7358,306.1002,-0.00074974,-0.00104817,0.0,0 STARLINK-4706,1 53779U 22111G   22271.58334491 -.00104817  00000-0 -74974-3 0  9996,2 53779  53.2163 180.3763 0001310 131.7358 306.1002 15.73262031  1300,6727.718000000003,91.53,350.465,348.702,0.0
53779.0,STARLINK-4706,PAYLOAD,2022-09-28 22:00:00,15.73193496,0.0001335,53.2163,178.7277,126.1366,40.6101,-0.001208,-0.00166791,0.0,0 STARLINK-4706,1 53779U 22111G   22271.91667824 -.00166791  00000-0 -12080-2 0  9990,2 53779  53.2163 178.7277 0001335 126.1366  40.6101 15.73193496  2742,6727.9140000000025,91.534,350.677,348.881,0.0
53779.0,STARLINK-4706,PAYLOAD,2022-09-29 06:00:00,15.73038062,9.32e-05,53.2159,177.0793,127.9405,127.6617,0.00055918,0.00078043,0.0,0 STARLINK-4706,1 53779U 22111G   22272.25001157  .00078043  00000-0  55918-3 0  9997,2 53779  53.2159 177.0793 0000932 127.9405 127.6617 15.73038062  2797,6728.357,91.543,350.849,349.595,0.0
